O3B FM5                 
1 39188U 13031A   22011.93824443 -.00000021  00000+0  00000+0 0  9992
2 39188   0.0319 357.7346 0002634 306.0040  56.2333  5.00116200156219
O3B FM4                 
1 39189U 13031B   22011.60416491 -.00000021  00000+0  00000+0 0  9997
2 39189   0.0554  17.5961 0003276 236.4459 105.9188  5.00116292156130
O3B FM2                 
1 39190U 13031C   22011.65665617 -.00000021  00000+0  00000+0 0  9990
2 39190   0.0597  20.4426 0005808 207.7340 131.7708  5.00115959156191
O3B PFM                 
1 39191U 13031D   22011.68347646 -.00000021  00000+0  00000+0 0  9993
2 39191   0.0396   4.9007 0002588 288.4565  66.6125  5.00115796155971
O3B FM3                 
1 40079U 14038A   22011.39170154 -.00000021  00000+0  00000+0 0  9994
2 40079   0.0481  14.7909 0003990 312.4038  32.7774  5.00115429132112
O3B FM7                 
1 40080U 14038B   22011.53785775 -.00000021  00000+0  00000+0 0  9993
2 40080   0.0494  19.7451 0002499 229.2371 110.9880  5.00115955136950
O3B FM6                 
1 40081U 14038C   22011.56408161 -.00000021  00000+0  00000+0 0  9998
2 40081   0.0492  14.3695 0002661 277.2356  68.3635  5.00115543136909
O3B FM8                 
1 40082U 14038D   22011.61807227 -.00000021  00000+0  00000+0 0  9991
2 40082   0.0523  14.7736 0002821 276.9464  68.2469  5.00115486137012
O3B FM10                
1 40348U 14083A   22011.44423701 -.00000021  00000+0  00000+0 0  9998
2 40348   0.0447   4.9364 0002662 286.6713  68.3608  5.00115944128967
O3B FM11                
1 40349U 14083B   22011.65746650 -.00000021  00000+0  00000+0 0  9993
2 40349   0.0411   9.0104 0002058 272.0591  78.9044  5.00115246128998
O3B FM12                
1 40350U 14083C   22011.52505120 -.00000021  00000+0  00000+0 0  9996
2 40350   0.0422   9.1886 0002596 276.2515  74.5281  5.00115819128990
O3B FM9                 
1 40351U 14083D   22011.51164827 -.00000021  00000+0  00000+0 0  9991
2 40351   0.0401   9.7787 0002590 280.8130  69.3774  5.00115039129143
DIAMOND RED             
1 42783U 17036U   22012.39496138  .00002897  00000+0  11881-3 0  9998
2 42783  97.2241  58.6655 0011942 155.5319 204.6488 15.24963225253148
DIAMOND GREEN           
1 42785U 17036W   22012.39431332  .00003092  00000+0  12657-3 0  9995
2 42785  97.2245  58.7210 0011832 156.0209 204.1583 15.24978355253134
DIAMOND BLUE            
1 42786U 17036X   22012.39340636  .00003023  00000+0  12383-3 0  9992
2 42786  97.2245  58.7122 0011760 156.4437 203.7342 15.24972616253136
LEO VANTAGE 1           
1 43113U 18004C   22012.27465470  .00000030  00000+0  22756-4 0  9995
2 43113  99.2707  76.3089 0298053 298.3793  58.7636 14.31461953201598
O3B FM15                
1 43231U 18024A   22012.17759500 -.00000021  00000+0  00000+0 0  9991
2 43231   0.0472   1.6703 0002697 292.2267  66.0718  5.00115829 70308
O3B FM16                
1 43232U 18024B   22011.63125221 -.00000021  00000+0  00000+0 0  9999
2 43232   0.0496 357.6477 0002674 294.9844  67.3366  5.00115735 70020
O3B FM14                
1 43233U 18024C   22011.87072450 -.00000021  00000+0  00000+0 0  9991
2 43233   0.0510 356.7908 0002617 292.3815  70.7964  5.00116210 70036
O3B FM13                
1 43234U 18024D   22003.92647920 -.00000021  00000+0  00000+0 0  9999
2 43234   0.0232   1.9781 0006017 122.5596 235.5162  4.99514979 69764
O3B FM20                
1 44112U 19020A   22011.69738284 -.00000021  00000+0  00000+0 0  9999
2 44112   0.0454   5.1998 0002337 288.5693  66.2033  5.00115320 50647
O3B FM19                
1 44113U 19020B   22006.08774779 -.00000023  00000+0  00000+0 0  9998
2 44113   0.0202 319.6486 0002263 339.8660  60.4587  5.00115839 50438
O3B FM17                
1 44114U 19020C   22011.40493704 -.00000021  00000+0  00000+0 0  9995
2 44114   0.0650   5.6440 0002667 289.1107  65.2145  5.00115344 50590
O3B FM18                
1 44115U 19020D   22011.35158753 -.00000021  00000+0  00000+0 0  9992
2 44115   0.0449   5.0990 0002826 287.5350  67.3329  5.00115671 50703
SALSAT                  
1 46495U 20068K   22011.89291745  .00000735  00000+0  57864-4 0  9993
2 46495  97.7136 313.3963 0018631  88.0017 272.3343 15.03777396 70654
